start=new Date('2022-05-04T00:00:00.000Z').valueOf();
sats=[{"COUNTRY_CODE":"US","MEAN_MOTION_DDOT":"0.0000000000000","CLASSIFICATION_TYPE":"U","SITE":"AFETR","EPHEMERIS_TYPE":"0","ECCENTRICITY":"0.00021740","ARG_OF_PERICENTER":"14.2865","TIME_SYSTEM":"UTC","RCS_SIZE":"LARGE","REV_AT_EPOCH":"370","TLE_LINE2":"2 52002  53.2134 225.7910 0002174  14.2865 258.4450 15.73250169  3702","CENTER_NAME":"EARTH","RA_OF_ASC_NODE":"225.7910","APOAPSIS":"351.080","MEAN_ELEMENT_THEORY":"SGP4","SEMIMAJOR_AXIS":"6727.752","ELEMENT_SET_NO":"999","MEAN_MOTION_DOT":"-0.00026240","PERIOD":"91.530","MEAN_MOTION":"15.73250169","TLE_LINE1":"1 52002U 22025AY  22123.91667824 -.00026240  00000-0 -18270-3 0  9990","OBJECT_ID":"2022-025AY","BSTAR":"-0.00018270000000","LAUNCH_DATE":"2022-03-09","PERIAPSIS":"348.155","GP_ID":"202637664","OBJECT_NAME":"STARLINK-3668","NORAD_CAT_ID":"52002","FILE":"3427573","INCLINATION":"53.2134","OBJECT_TYPE":"PAYLOAD","DECAY_DATE":null,"REF_FRAME":"TEME","MEAN_ANOMALY":"258.4450","EPOCH":"2022-05-03T22:00:00.999936"},{"REF_FRAME":"TEME","EPOCH":"2022-05-03T22:00:00.999936","MEAN_ANOMALY":"254.8184","LAUNCH_DATE":"2022-03-09","PERIAPSIS":"348.033","OBJECT_NAME":"STARLINK-3654","GP_ID":"202637744","NORAD_CAT_ID":"52003","FILE":"3427573","INCLINATION":"53.2146","OBJECT_TYPE":"PAYLOAD","DECAY_DATE":null,"TLE_LINE1":"1 52003U 22025AZ  22123.91667824 -.00043850  00000-0 -30873-3 0  9990","BSTAR":"-0.00030873000000","OBJECT_ID":"2022-025AZ","PERIOD":"91.529","MEAN_MOTION":"15.73264697","SEMIMAJOR_AXIS":"6727.711","MEAN_MOTION_DOT":"-0.00043850","ELEMENT_SET_NO":"999","REV_AT_EPOCH":"370","TLE_LINE2":"2 52003  53.2146 225.7933 0002293  18.5264 254.8184 15.73264697  3708","CENTER_NAME":"EARTH","RA_OF_ASC_NODE":"225.7933","APOAPSIS":"351.118","MEAN_ELEMENT_THEORY":"SGP4","ARG_OF_PERICENTER":"18.5264","TIME_SYSTEM":"UTC","RCS_SIZE":"LARGE","COUNTRY_CODE":"US","MEAN_MOTION_DDOT":"0.0000000000000","CLASSIFICATION_TYPE":"U","SITE":"AFETR","EPHEMERIS_TYPE":"0","ECCENTRICITY":"0.00022930"},{"BSTAR":"-0.00000524470000","OBJECT_ID":"2022-029A","TLE_LINE1":"1 52088U 22029A   22123.91667824 -.00001516  00000-0 -52447-5 0  9993","MEAN_MOTION":"15.76786474","PERIOD":"91.325","EPOCH":"2022-05-03T22:00:00.999936","REF_FRAME":"TEME","MEAN_ANOMALY":"153.8127","DECAY_DATE":null,"FILE":"3427573","INCLINATION":"53.2111","OBJECT_TYPE":"PAYLOAD","LAUNCH_DATE":"2022-03-19","PERIAPSIS":"338.372","GP_ID":"202637830","NORAD_CAT_ID":"52088","OBJECT_NAME":"STARLINK-3537","TIME_SYSTEM":"UTC","RCS_SIZE":"LARGE","ARG_OF_PERICENTER":"357.2552","ECCENTRICITY":"0.00017600","SITE":"AFETR","EPHEMERIS_TYPE":"0","CLASSIFICATION_TYPE":"U","MEAN_MOTION_DDOT":"0.0000000000000","COUNTRY_CODE":"US","MEAN_MOTION_DOT":"-0.00001516","ELEMENT_SET_NO":"999","SEMIMAJOR_AXIS":"6717.689","APOAPSIS":"340.737","MEAN_ELEMENT_THEORY":"SGP4","CENTER_NAME":"EARTH","TLE_LINE2":"2 52088  53.2111 272.7090 0001760 357.2552 153.8127 15.76786474  2080","RA_OF_ASC_NODE":"272.7090","REV_AT_EPOCH":"208"},{"ELEMENT_SET_NO":"999","MEAN_MOTION_DOT":"-0.00712833","SEMIMAJOR_AXIS":"6826.882","APOAPSIS":"449.629","MEAN_ELEMENT_THEORY":"SGP4","RA_OF_ASC_NODE":"282.0393","CENTER_NAME":"EARTH","TLE_LINE2":"2 52089  53.2172 282.0393 0001293  88.6813 118.5894 15.39108413  3668","REV_AT_EPOCH":"366","RCS_SIZE":"LARGE","TIME_SYSTEM":"UTC","ARG_OF_PERICENTER":"88.6813","ECCENTRICITY":"0.00012930","EPHEMERIS_TYPE":"0","SITE":"AFETR","CLASSIFICATION_TYPE":"U","COUNTRY_CODE":"US","MEAN_MOTION_DDOT":"0.0000000000000","EPOCH":"2022-05-03T22:00:00.999936","REF_FRAME":"TEME","MEAN_ANOMALY":"118.5894","DECAY_DATE":null,"OBJECT_TYPE":"PAYLOAD","FILE":"3427573","INCLINATION":"53.2172","OBJECT_NAME":"STARLINK-3722","GP_ID":"202637673","NORAD_CAT_ID":"52089","LAUNCH_DATE":"2022-03-19","PERIAPSIS":"447.864","BSTAR":"-0.01959800000000","OBJECT_ID":"2022-029B","TLE_LINE1":"1 52089U 22029B   22123.91667824 -.00712833  00000-0 -19598-1 0  9991","MEAN_MOTION":"15.39108413","PERIOD":"93.561"},{"REV_AT_EPOCH":"366","MEAN_ELEMENT_THEORY":"SGP4","APOAPSIS":"448.497","TLE_LINE2":"2 52090  53.2172 282.0386 0001302  77.4041 162.2833 15.39493530  3668","CENTER_NAME":"EARTH","RA_OF_ASC_NODE":"282.0386","SEMIMAJOR_AXIS":"6825.743","ELEMENT_SET_NO":"999","MEAN_MOTION_DOT":"-0.00713335","CLASSIFICATION_TYPE":"U","COUNTRY_CODE":"US","MEAN_MOTION_DDOT":"0.0000000000000","ECCENTRICITY":"0.00013020","SITE":"AFETR","EPHEMERIS_TYPE":"0","TIME_SYSTEM":"UTC","RCS_SIZE":"LARGE","ARG_OF_PERICENTER":"77.4041","LAUNCH_DATE":"2022-03-19","PERIAPSIS":"446.719","OBJECT_NAME":"STARLINK-3712","GP_ID":"202637753","NORAD_CAT_ID":"52090","DECAY_DATE":null,"FILE":"3427573","INCLINATION":"53.2172","OBJECT_TYPE":"PAYLOAD","REF_FRAME":"TEME","EPOCH":"2022-05-03T22:00:00.999936","MEAN_ANOMALY":"162.2833","MEAN_MOTION":"15.39493530","PERIOD":"93.537","TLE_LINE1":"1 52090U 22029C   22123.91667824 -.00713335  00000-0 -19365-1 0  9993","OBJECT_ID":"2022-029C","BSTAR":"-0.01936500000000"},{"MEAN_ANOMALY":"136.7995","REF_FRAME":"TEME","EPOCH":"2022-05-03T22:00:00.999936","DECAY_DATE":null,"FILE":"3427573","INCLINATION":"53.2172","OBJECT_TYPE":"PAYLOAD","LAUNCH_DATE":"2022-03-19","PERIAPSIS":"447.480","GP_ID":"202637274","NORAD_CAT_ID":"52091","OBJECT_NAME":"STARLINK-3713","OBJECT_ID":"2022-029D","BSTAR":"-0.01951900000000","TLE_LINE1":"1 52091U 22029D   22123.91667824 -.00712963  00000-0 -19519-1 0  9991","MEAN_MOTION":"15.39236758","PERIOD":"93.553","ELEMENT_SET_NO":"999","MEAN_MOTION_DOT":"-0.00712963","SEMIMAJOR_AXIS":"6826.502","APOAPSIS":"449.254","MEAN_ELEMENT_THEORY":"SGP4","CENTER_NAME":"EARTH","TLE_LINE2":"2 52091  53.2172 282.0390 0001299  81.3154 136.7995 15.39236758  3660","RA_OF_ASC_NODE":"282.0390","REV_AT_EPOCH":"366","TIME_SYSTEM":"UTC","RCS_SIZE":"LARGE","ARG_OF_PERICENTER":"81.3154","ECCENTRICITY":"0.00012990","EPHEMERIS_TYPE":"0","SITE":"AFETR","CLASSIFICATION_TYPE":"U","COUNTRY_CODE":"US","MEAN_MOTION_DDOT":"0.0000000000000"},{"APOAPSIS":"448.876","MEAN_ELEMENT_THEORY":"SGP4","RA_OF_ASC_NODE":"282.0389","CENTER_NAME":"EARTH","TLE_LINE2":"2 52092  53.2172 282.0389 0001302  85.7138 143.2066 15.39365084  3661","REV_AT_EPOCH":"366","ELEMENT_SET_NO":"999","MEAN_MOTION_DOT":"-0.00713016","SEMIMAJOR_AXIS":"6826.123","ECCENTRICITY":"0.00013020","SITE":"AFETR","EPHEMERIS_TYPE":"0","CLASSIFICATION_TYPE":"U","MEAN_MOTION_DDOT":"0.0000000000000","COUNTRY_CODE":"US","RCS_SIZE":"LARGE","TIME_SYSTEM":"UTC","ARG_OF_PERICENTER":"85.7138","DECAY_DATE":null,"OBJECT_TYPE":"PAYLOAD","FILE":"3427573","INCLINATION":"53.2172","OBJECT_NAME":"STARLINK-3716","GP_ID":"202637511","NORAD_CAT_ID":"52092","LAUNCH_DATE":"2022-03-19","PERIAPSIS":"447.099","REF_FRAME":"TEME","EPOCH":"2022-05-03T22:00:00.999936","MEAN_ANOMALY":"143.2066","MEAN_MOTION":"15.39365084","PERIOD":"93.545","BSTAR":"-0.01943800000000","OBJECT_ID":"2022-029E","TLE_LINE1":"1 52092U 22029E   22123.91667824 -.00713016  00000-0 -19438-1 0  9992"},{"SITE":"AFETR","EPHEMERIS_TYPE":"0","ECCENTRICITY":"0.00012660","COUNTRY_CODE":"US","MEAN_MOTION_DDOT":"0.0000000000000","CLASSIFICATION_TYPE":"U","ARG_OF_PERICENTER":"84.4743","RCS_SIZE":"LARGE","TIME_SYSTEM":"UTC","RA_OF_ASC_NODE":"282.0362","CENTER_NAME":"EARTH","TLE_LINE2":"2 52093  53.2172 282.0362 0001266  84.4743 177.1811 15.39742756  3669","APOAPSIS":"447.735","MEAN_ELEMENT_THEORY":"SGP4","REV_AT_EPOCH":"366","MEAN_MOTION_DOT":"-0.00713677","ELEMENT_SET_NO":"999","SEMIMAJOR_AXIS":"6825.006","PERIOD":"93.522","MEAN_MOTION":"15.39742756","BSTAR":"-0.01921600000000","OBJECT_ID":"2022-029F","TLE_LINE1":"1 52093U 22029F   22123.91667824 -.00713677  00000-0 -19216-1 0  9990","OBJECT_TYPE":"PAYLOAD","FILE":"3427573","INCLINATION":"53.2172","DECAY_DATE":null,"GP_ID":"202637354","NORAD_CAT_ID":"52093","OBJECT_NAME":"STARLINK-3673","LAUNCH_DATE":"2022-03-19","PERIAPSIS":"446.007","REF_FRAME":"TEME","EPOCH":"2022-05-03T22:00:00.999936","MEAN_ANOMALY":"177.1811"},{"APOAPSIS":"448.104","MEAN_ELEMENT_THEORY":"SGP4","RA_OF_ASC_NODE":"282.0380","CENTER_NAME":"EARTH","TLE_LINE2":"2 52094  53.2172 282.0380 0001283  88.7216 161.6940 15.39621889  3665","REV_AT_EPOCH":"366","ELEMENT_SET_NO":"999","MEAN_MOTION_DOT":"-0.00713437","SEMIMAJOR_AXIS":"6825.364","ECCENTRICITY":"0.00012830","SITE":"AFETR","EPHEMERIS_TYPE":"0","CLASSIFICATION_TYPE":"U","MEAN_MOTION_DDOT":"0.0000000000000","COUNTRY_CODE":"US","RCS_SIZE":"LARGE","TIME_SYSTEM":"UTC","ARG_OF_PERICENTER":"88.7216","DECAY_DATE":null,"OBJECT_TYPE":"PAYLOAD","INCLINATION":"53.2172","FILE":"3427573","GP_ID":"202637434","OBJECT_NAME":"STARLINK-3714","NORAD_CAT_ID":"52094","PERIAPSIS":"446.353","LAUNCH_DATE":"2022-03-19","MEAN_ANOMALY":"161.6940","REF_FRAME":"TEME","EPOCH":"2022-05-03T22:00:00.999936","MEAN_MOTION":"15.39621889","PERIOD":"93.529","OBJECT_ID":"2022-029G","BSTAR":"-0.01928600000000","TLE_LINE1":"1 52094U 22029G   22123.91667824 -.00713437  00000-0 -19286-1 0  9992"},{"ARG_OF_PERICENTER":"95.2083","RCS_SIZE":"LARGE","TIME_SYSTEM":"UTC","COUNTRY_CODE":"US","MEAN_MOTION_DDOT":"0.0000000000000","CLASSIFICATION_TYPE":"U","SITE":"AFETR","EPHEMERIS_TYPE":"0","ECCENTRICITY":"0.00012390","SEMIMAJOR_AXIS":"6824.247","ELEMENT_SET_NO":"999","MEAN_MOTION_DOT":"-0.00714436","REV_AT_EPOCH":"366","RA_OF_ASC_NODE":"282.0348","TLE_LINE2":"2 52095  53.2173 282.0348 0001239  95.2083 187.7147 15.39999719  3665","CENTER_NAME":"EARTH","APOAPSIS":"446.958","MEAN_ELEMENT_THEORY":"SGP4","TLE_LINE1":"1 52095U 22029H   22123.91667824 -.00714436  00000-0 -19075-1 0  9999","OBJECT_ID":"2022-029H","BSTAR":"-0.01907500000000","PERIOD":"93.507","MEAN_MOTION":"15.39999719","MEAN_ANOMALY":"187.7147","REF_FRAME":"TEME","EPOCH":"2022-05-03T22:00:00.999936","NORAD_CAT_ID":"52095","GP_ID":"202637594","OBJECT_NAME":"STARLINK-3701","LAUNCH_DATE":"2022-03-19","PERIAPSIS":"445.267","OBJECT_TYPE":"PAYLOAD","FILE":"3427573","INCLINATION":"53.2173","DECAY_DATE":null}];
